FLOCK 4G-7              
1 62624U 25009R   25147.19839043  .00005648  00000+0  26263-3 0  9996
2 62624  97.4258 227.6773 0002162 208.0213 152.0906 15.20360011 20091
FLOCK 4G-12             
1 62625U 25009S   25147.64812069  .00005569  00000+0  25818-3 0  9993
2 62625  97.4331 228.2770 0003918 208.0869 152.0156 15.20464963 20161
2025-009T               
1 62626U 25009T   25147.92423716  .00000896  00000+0  44720-4 0  9994
2 62626  97.4293 228.4497 0003539 196.5761 163.5358 15.20040164 20207
RAY 1.0                 
1 62627U 25009U   25147.81211661  .00002917  00000+0  14890-3 0  9997
2 62627  97.4314 228.1894 0009616 171.3601 188.7800 15.17462385 20172
ION SCV-016             
1 62628U 25009V   25147.87570337  .00017732  00000+0  42438-3 0  9992
2 62628  97.4879 225.3217 0628833 229.3393 125.1504 14.39938040 19923
FLOCK 4G-11             
1 62629U 25009W   25147.63113058  .00006518  00000+0  29942-3 0  9995
2 62629  97.4250 228.1576 0002438 205.5124 154.5992 15.20720923 20166
ION SCV-014             
1 62630U 25009X   25147.92212623  .00001007  00000+0  78282-4 0  9997
2 62630  97.5209 227.2085 0005593  27.6310 332.5212 15.03454143 20064
PELICAN-2               
1 62631U 25009Y   25147.91668981 -.00046092  00000+0 -13978-2 0  9993
2 62631  97.4303 229.2678 0009694 223.8675 210.5762 15.34201933  4988
SIGI                    
1 62632U 25009Z   25147.88137252  .00004410  00000+0  20987-3 0  9997
2 62632  97.4313 228.3889 0002979 193.9803 166.1350 15.19672546 20198
FLOCK 4G-26             
1 62633U 25009AA  25147.18695892  .00005976  00000+0  27613-3 0  9991
2 62633  97.4334 227.8321 0003472 196.7467 163.3654 15.20548960 20092
FLOCK 4G-28             
1 62634U 25009AB  25147.16663605  .00006319  00000+0  28953-3 0  9997
2 62634  97.4331 227.8544 0003740 201.3064 158.8016 15.20819455 20092
GARAI-A                 
1 62635U 25009AC  25147.86633954  .00007229  00000+0  32782-3 0  9995
2 62635  97.4306 228.5478 0002561 189.6238 170.4949 15.21125454 20208
FLOCK 4G-20             
1 62636U 25009AD  25147.19047882  .00005475  00000+0  25406-3 0  9997
2 62636  97.4247 227.6696 0002031 200.0015 160.1141 15.20446572 20091
FLOCK 4G-24             
1 62637U 25009AE  25147.49123290  .00005891  00000+0  26955-3 0  9991
2 62637  97.4335 228.1899 0003455 183.0420 177.0795 15.20897595 20145
FLOCK 4G-3              
1 62639U 25009AG  25147.63487668  .00006096  00000+0  28119-3 0  9993
2 62639  97.4334 228.2997 0002815 184.5664 175.5546 15.20604141 20152
2025-009AH              
1 62640U 25009AH  25147.49437700  .00006204  00000+0  28445-3 0  9994
2 62640  97.4262 228.0605 0001521 197.3869 162.7315 15.20808559 20140
FLOCK 4G-27             
1 62641U 25009AJ  25147.17967864  .00005924  00000+0  27384-3 0  9998
2 62641  97.4255 227.6982 0002239 183.9909 176.1308 15.20543157 20083
FLOCK 4G-29             
1 62642U 25009AK  25147.17839976  .00005509  00000+0  25480-3 0  9995
2 62642  97.4332 227.8333 0003271 179.9930 180.1306 15.20554240 20086
FLOCK 4G-32             
1 62643U 25009AL  25147.64332204  .00005514  00000+0  25531-3 0  9993
2 62643  97.4255 228.1497 0001871 183.3840 176.7383 15.20513346 20155
2025-009AM              
1 62644U 25009AM  25147.44025554  .00008362  00000+0  36978-3 0  9990
2 62644  97.4345 228.2721 0002643 174.6838 185.4426 15.21941076 20134
FLOCK 4G-22             
1 62645U 25009AN  25147.61664745  .00005758  00000+0  26374-3 0  9996
2 62645  97.4322 228.3043 0002691 179.8718 180.2519 15.20870346 20164
FLOCK 4G-25             
1 62646U 25009AP  25147.48622052  .00005492  00000+0  25174-3 0  9999
2 62646  97.4321 228.1697 0002373 169.5137 190.6149 15.20863209 20147
FLOCK 4G-23             
1 62647U 25009AQ  25147.62432966  .00005909  00000+0  27160-3 0  9999
2 62647  97.4260 228.1876 0001386 198.5505 161.5680 15.20738083 20163
LIME                    
1 62648U 25009AR  25147.65328130  .00006906  00000+0  31002-3 0  9998
2 62648  97.4248 228.2758 0000503 232.9499 127.1691 15.21489890 20176
2025-009AS              
1 62649U 25009AS  25147.48151324  .00012313  00000+0  50951-3 0  9992
2 62649  97.4324 228.4776 0002348 164.6264 195.5045 15.24089707 20161
FLOCK 4G-34             
1 62650U 25009AT  25147.62268529  .00005560  00000+0  25558-3 0  9997
2 62650  97.4273 228.2109 0001805 176.0580 184.0670 15.20760910 20164
FLOCK 4G-21             
1 62651U 25009AU  25147.19964395  .00006295  00000+0  28426-3 0  9997
2 62651  97.4306 227.9136 0001769 174.5794 185.5461 15.21325773 20100
FLOCK 4G-31             
1 62652U 25009AV  25147.75408600  .00006172  00000+0  28341-3 0  9992
2 62652  97.4280 228.3513 0001306 169.7679 190.3583 15.20758093 20182
PAUSAT-1                
1 62653U 25009AW  25147.87176143  .00003379  00000+0  16195-3 0  9990
2 62653  97.4275 228.3376 0001219 163.7986 196.3288 15.19591219 20194
BRO-16                  
1 62654U 25009AX  25147.64478005  .00003562  00000+0  16926-3 0  9994
2 62654  97.4359 228.3212 0001972 164.2698 195.8599 15.19854239 20169
2025-009AY              
1 62655U 25009AY  25147.48966088  .00010835  00000+0  45477-3 0  9994
2 62655  97.4350 228.5242 0002518 156.4778 203.6575 15.23640793 20160
2025-009AZ              
1 62656U 25009AZ  25147.49142251  .00007768  00000+0  34231-3 0  9991
2 62656  97.4258 228.2015 0000614 161.8629 198.2629 15.22083756 20150
2025-009BA              
1 62657U 25009BA  25147.46646995  .00005795  00000+0  26323-3 0  9994
2 62657  97.4265 228.0955 0002447 155.8070 204.3281 15.21157328 20147
TROLL                   
1 62658U 25009BB  25147.17791245  .00006422  00000+0  28760-3 0  9997
2 62658  97.4210 227.7799 0000347  31.3013 328.8243 15.21598958 74598
FLOCK 4G-4              
1 62659U 25009BC  25147.20050223  .00005579  00000+0  25858-3 0  9993
2 62659  97.4271 227.6939 0002075 209.2600 150.8519 15.20474976 77706
FLOCK 4G-6              
1 62660U 25009BD  25147.65414387  .00005324  00000+0  24744-3 0  9990
2 62660  97.4259 228.1378 0002393 225.4203 134.6837 15.20399248 77755
FLOCK 4G-2              
1 62661U 25009BE  25147.65189019  .00006160  00000+0  28414-3 0  9999
2 62661  97.4321 228.2608 0004002 221.6288 138.4643 15.20598677 77779
FLOCK 4G-5              
1 62663U 25009BG  25147.20380370  .00005582  00000+0  25913-3 0  9993
2 62663  97.4334 227.8054 0003960 221.2197 138.8740 15.20421022 20096
LYRA-1                  
1 62664U 25009BH  25147.47140810  .00006337  00000+0  38971-3 0  9993
2 62664  97.4358 226.7046 0012508  91.4745 268.7917 15.10312652 20047
JAY-D2                  
1 62665U 25009BJ  25147.87696096  .00003375  00000+0  16605-3 0  9999
2 62665  97.4214 228.1028 0003216 222.5370 137.5616 15.18681642 20182
FLOCK 4G-1              
1 62666U 25009BK  25147.20358290  .00005910  00000+0  27344-3 0  9997
2 62666  97.4336 227.8114 0004119 224.0808 136.0100 15.20506648 20093
FLOCK 4G-14             
1 62667U 25009BL  25147.48482047  .00006316  00000+0  29417-3 0  9990
2 62667  97.4341 228.0512 0004133 219.3363 140.7572 15.20251844 20139
JAY-C                   
1 62668U 25009BM  25147.87789495  .00003304  00000+0  16258-3 0  9994
2 62668  97.4281 228.1896 0003412 233.4626 126.6294 15.18684623 77821
JAY-D1                  
1 62669U 25009BN  25147.87714348  .00003354  00000+0  16498-3 0  9991
2 62669  97.4348 228.2827 0004034 236.6601 123.4248 15.18688223 20181
FLOCK 4G-10             
1 62670U 25009BP  25147.22128659  .00006566  00000+0  30573-3 0  9994
2 62670  97.4252 227.6347 0003716 238.3935 121.6937 15.20246234 77735
SKYBEE-A01              
1 62671U 25009BQ  25147.89047428  .00002454  00000+0  12279-3 0  9997
2 62671  97.4308 228.2186 0004268 227.4049 132.6825 15.18344296 77826
2025-009BR              
1 62672U 25009BR  25147.61273116  .00003378  00000+0  16555-3 0  9990
2 62672  97.4279 227.9298 0003743 231.3895 128.7005 15.18812333 77787
IMPULSE-2 MIRA          
1 62673U 25009BS  25147.76976976  .00003384  00000+0  16833-3 0  9997
2 62673  97.1979 224.6760 0006314 160.7677 199.3797 15.18242592 77809
2025-009BT              
1 62674U 25009BT  25147.20209233  .00006181  00000+0  28497-3 0  9999
2 62674  97.4378 227.8856 0004915 216.3879 143.7022 15.20611882 77735
FLOCK 4G-36             
1 62675U 25009BU  25147.49009454  .00006522  00000+0  30380-3 0  9997
2 62675  97.4332 228.0307 0004355 221.5581 138.5324 15.20232309 20138
FOSSASAT-2E19 (TAT-E)   
1 62676U 25009BV  25147.64445347  .00002451  00000+0  12331-3 0  9993
2 62676  97.4268 227.8618 0004268 235.7030 124.3801 15.18155390 20143
ELEVATION-1             
1 62677U 25009BW  25147.49426083  .00011479  00000+0  49079-3 0  9992
2 62677  97.4231 228.1786 0004432 230.8655 129.2188 15.22993985 77796
FLOCK 4G-15             
1 62678U 25009BX  25147.80317729  .00006032  00000+0  27964-3 0  9992
2 62678  97.4332 228.3770 0004804 216.0610 144.0302 15.20430968 77826
FLOCK 4G-30             
1 62679U 25009BY  25147.62853788  .00007432  00000+0  34609-3 0  9992
2 62679  97.4254 228.0137 0003666 245.7169 114.3684 15.20197457 77799
FLOCK 4G-18             
1 62680U 25009BZ  25147.17001471  .00007040  00000+0  32864-3 0  9994
2 62680  97.4327 227.6884 0004782 237.0310 123.0466 15.20128941 77728
FLOCK 4G-17             
1 62681U 25009CA  25147.20426565  .00005890  00000+0  27221-3 0  9996
2 62681  97.4252 227.6609 0004214 242.2467 117.8341 15.20547292 77730
FOREST-3                
1 62682U 25009CB  25147.25438023  .00004558  00000+0  21728-3 0  9990
2 62682  97.4220 227.5409 0004116 248.0583 112.0215 15.19594800 77739
FLOCK 4G-35             
1 62683U 25009CC  25147.17106900  .00006777  00000+0  31701-3 0  9995
2 62683  97.4322 227.6717 0004856 222.9953 137.0903 15.20074383 77720
IRIS-F2                 
1 62684U 25009CD  25147.59986837  .00003164  00000+0  15400-3 0  9992
2 62684  97.4216 227.8365 0004822 245.7737 114.2994 15.19102124 77786
